[{"OBJECT_NAME":"STARLINK-4466","OBJECT_ID":"2022-105J","EPOCH":"2026-03-09T15:02:06.192384","MEAN_MOTION":15.01258493,"ECCENTRICITY":9.55e-5,"INCLINATION":97.6037,"RA_OF_ASC_NODE":310.1444,"ARG_OF_PERICENTER":143.0445,"MEAN_ANOMALY":217.0846,"EPHEMERIS_TYPE":0,"CLASSIFICATION_TYPE":"U","NORAD_CAT_ID":53656,"ELEMENT_SET_NO":999,"REV_AT_EPOCH":19322,"BSTAR":8.3134e-6,"MEAN_MOTION_DOT":4.9e-7,"MEAN_MOTION_DDOT":0},{"OBJECT_NAME":"FENGYUN 1C DEB","OBJECT_ID":"1999-025CCU","EPOCH":"2026-03-09T04:16:51.250080","MEAN_MOTION":14.7380712,"ECCENTRICITY":0.02770831,"INCLINATION":98.1363,"RA_OF_ASC_NODE":145.1449,"ARG_OF_PERICENTER":173.2574,"MEAN_ANOMALY":217.8544,"EPHEMERIS_TYPE":0,"CLASSIFICATION_TYPE":"U","NORAD_CAT_ID":31686,"ELEMENT_SET_NO":999,"REV_AT_EPOCH":99091,"BSTAR":0.001175879,"MEAN_MOTION_DOT":0.00014291,"MEAN_MOTION_DDOT":0}]
